0 DMSP 5D-3 F18 DEB
1 35953U 09057C   13281.60865156  .00001111  00000-0  59709-3 0  9669
2 35953 098.7837 322.5703 0005536 152.5776 333.5795 14.14966747204979
0 DMSP 5D-3 F18 DEB
1 35953U 09057C   13284.06470731  .00001185  00000-0  63496-3 0  9673
2 35953 098.7833 324.9879 0005558 146.9047 243.1308 14.14975735205319
0 DMSP 5D-3 F18 DEB
1 35953U 09057C   13286.12129948  .00001084  00000-0  58291-3 0  9689
2 35953 098.7828 327.0124 0005582 142.1316 278.1467 14.14979126205619
0 DMSP 5D-3 F18 DEB
1 35953U 09057C   13288.60829215  .00001423  00000-0  75792-3 0  9691
2 35953 098.7821 329.4605 0005572 136.7630 344.9999 14.14985177205962
0 DMSP 5D-3 F18 DEB
1 35953U 09057C   13290.72845461  .00001146  00000-0  61481-3 0  9702
2 35953 098.7818 331.5473 0005551 132.0781 343.6438 14.14991783206266
0 DMSP 5D-3 F18 DEB
1 35953U 09057C   13293.12179448  .00001209  00000-0  64729-3 0  9713
2 35953 098.7817 333.9028 0005556 126.4259 294.0903 14.14995998206605
0 DMSP 5D-3 F18 DEB
1 35953U 09057C   13295.38576784  .00001313  00000-0  70062-3 0  9721
2 35953 098.7817 336.1309 0005531 121.4956 305.2358 14.15001395206928
